15P/Finlay,e,6.7973,13.7209,347.8442,3.503538,0.1502947,0.71686869,275.2854,12/28.0/2019,2000,g 12.0,4.0
# From MPC 92276
16P/Brooks,e,3.0053,138.9835,245.1416,3.659696,0.1407786,0.48808675,292.8874,12/28.0/2019,2000,g  7.5,10.0
# From MPC114607
17P/Holmes,e,19.0226,326.6603,24.5737,3.635325,0.1421966,0.42824910,300.2652,12/28.0/2019,2000,g 10.0,6.0
# From MPC 92984
19P/Borrelly,e,29.7166,74.6270,351.8068,3.598736,0.1443707,0.64023649,249.4529,12/28.0/2019,2000,g  4.5,10.0
# From MPC111773
21P/Giacobini-Zinner,e,32.0035,195.3764,172.8488,3.496481,0.1507500,0.71050540,71.4098,12/28.0/2019,2000,g  9.0,6.0
# From MPC 94283
22P/Kopff,e,4.7414,120.8359,162.9394,3.443634,0.1542335,0.54882101,234.9260,12/28.0/2019,2000,g  3.0,10.4
# From MPC 14747
23P/Brorsen-Metcalf,e,19.1616,312.3066,128.9367,16.95760,0.0141142,0.97090633,0.0000,08/17.8304/1989,2000,g 10.0,6.0
# From MPC110085
24P/Schaumasse,e,11.7296,79.5833,57.7432,4.070042,0.1200344,0.70700795,92.4637,12/28.0/2019,2000,g  6.5,14.0
# From MPC 94674
26P/Grigg-Skjellerup,e,22.4477,211.5347,2.1944,3.013775,0.1883813,0.64079434,85.1941,12/28.0/2019,2000,g 12.0,16.0
# From MPC 78188
27P/Crommelin,e,29.1106,250.5734,196.0166,9.193264,0.0353590,0.91790872,108.8157,12/28.0/2019,2000,g 12.0,8.0
# From MPC114607
28P/Neujmin,e,14.3116,346.3467,347.4392,6.967816,0.0535869,0.77354922,336.4224,12/28.0/2019,2000,g  8.5,6.0
# From MPEC 2019-VB6
29P/Schwassmann-Wachmann,e,9.3671,312.3826,47.9856,6.030344,0.0665566,0.04367887,19.4649,12/28.0/2019,2000,g  4.0,4.0
# From MPC110085
30P/Reinmuth,e,8.2950,119.0675,13.1693,3.750184,0.1357142,0.51100321,116.2113,12/28.0/2019,2000,g  9.5,6.0
# From MPC108597
31P/Schwassmann-Wachmann,e,4.5473,114.1127,18.3259,4.242837,0.1127768,0.19268047,19.7394,12/28.0/2019,2000,g  5.0,8.0
# From MPC 92276
32P/Comas Sola,e,9.9434,57.6569,53.3076,4.498772,0.1032911,0.55673652,196.1382,12/28.0/2019,2000,g  6.5,8.0
# From MPEC 2013-O31
33P/Daniel,e,22.3635,66.3728,20.6449,4.079493,0.1196175,0.45378371,146.9210,12/28.0/2019,2000,g 10.0,12.0
# From  15, 452
35P/Herschel-Rigollet,e,64.489,356.237,29.135,28.5702,0.006454,0.9733288,0.000,12/25.6198/2091,2000,g  9.0,4.0
# From MPC105240
36P/Whipple,e,9.9529,181.8638,200.7564,4.129825,0.1174374,0.26832727,341.7301,12/28.0/2019,2000,g  8.5,6.0
# From MPEC 2018-HA5
37P/Forbes,e,8.9565,314.5701,330.0530,3.458545,0.1532371,0.53418108,92.3679,12/28.0/2019,2000,g 10.5,4.8
# From MPEC 2018-S50
38P/Stephan-Oterma,e,18.3534,77.9979,359.5619,11.26816,0.0260570,0.85904840,10.7372,12/28.0/2019,2000,g  3.5,12.0
# From MPC115887
39P/Oterma,e,1.5610,299.2545,94.7821,7.411938,0.0488435,0.22353946,299.9302,12/28.0/2019,2000,g  7.0,6.0
# From MPC100283
40P/Vaisala,e,11.4719,133.7926,47.4635,4.949724,0.0895020,0.63029271,167.3549,12/28.0/2019,2000,g  5.5,12.0
# From MPC105240
41P/Tuttle-Giacobini-Kresak,e,9.2219,141.0088,62.2566,3.085621,0.1818404,0.66051680,179.9451,12/28.0/2019,2000,g 10.0,16.0
# From MPC 94283
42P/Neujmin,e,3.9880,150.2051,147.1399,4.873059,0.0916224,0.58536710,157.8506,12/28.0/2019,2000,g 13.0,6.0
# From MPC102956
43P/Wolf-Harrington,e,9.5001,244.7776,223.7878,4.296797,0.1106590,0.44337171,133.6106,12/28.0/2019,2000,g  8.0,6.0
# From MPC 89313
44P/Reinmuth,e,5.8982,286.4823,58.1226,3.689045,0.1391019,0.42690253,242.0713,12/28.0/2019,2000,g  8.3,6.0
# From MPC103849
45P/Honda-Mrkos-Pajdusakova,e,4.3264,87.6931,327.9888,3.049108,0.1851164,0.81792486,202.7008,12/28.0/2019,2000,g 13.5,8.0
# From MPC114607
46P/Wirtanen,e,11.7449,82.1531,356.3662,3.091891,0.1812875,0.65854623,68.9079,12/28.0/2019,2000,g 14.0,6.0
# From NK 2718
47P/Ashbrook-Jackson,e,13.0316,356.9365,357.6056,4.125800,0.1176094,0.31765315,109.4733,12/28.0/2019,2000,g  9.0,4.0
# From MPEC 2015-M77
48P/Johnson,e,12.2077,110.1272,216.6019,3.499994,0.1505231,0.42724835,75.6627,12/28.0/2019,2000,g  9.0,4.0
# From MPEC 2015-M77
49P/Arend-Rigaux,e,19.0444,118.8049,332.9505,3.569504,0.1461478,0.59903186,77.5506,12/28.0/2019,2000,g  9.0,4.0
# From MPEC 2015-S97
50P/Arend,e,19.0962,355.1535,49.3706,4.089724,0.1191690,0.52846493,169.3308,12/28.0/2019,2000,g  9.5,6.0
# From NK 3013
51P-A/Harrington,e,5.4254,83.6775,269.2312,3.708819,0.1379909,0.54273873,220.7297,12/28.0/2019,2000,g 16.0,8.0
# From NK 3014
51P-A/Harrington,e,5.4247,83.6931,269.1919,3.709844,0.1379338,0.54281041,220.4864,12/28.0/2019,2000,g 10.0,8.0
# From NK 3014
51P-A/Harrington,e,5.4247,83.6931,269.1919,3.709826,0.1379348,0.54280732,220.4894,12/28.0/2019,2000,g 10.0,8.0
# From MPEC 2015-L08
51P-D/Harrington,e,5.4261,83.6830,269.1813,3.708910,0.1379859,0.54275284,220.7260,12/28.0/2019,2000,g 16.0,8.0
# From MPEC 2015-L08
51P-D/Harrington,e,5.4262,83.6820,269.1821,3.708897,0.1379866,0.54275342,220.7310,12/28.0/2019,2000,g 16.0,8.0
# From NK 3013
51P-D/Harrington,e,5.4254,83.6778,269.2309,3.708819,0.1379910,0.54273891,220.7299,12/28.0/2019,2000,g 16.0,8.0
# From NK 3013
51P-D/Harrington,e,5.4254,83.6778,269.2309,3.708819,0.1379910,0.54273905,220.7299,12/28.0/2019,2000,g 16.0,8.0
# From MPC 88330
52P/Harrington-Abell,e,10.2308,336.8378,139.6025,3.861882,0.1298690,0.53959766,275.9231,12/28.0/2019,2000,g 13.5,6.0
# From MPC100283
53P/Van Biesbroeck,e,6.6074,148.8519,134.3578,5.423274,0.0780390,0.55234494,104.2783,12/28.0/2019,2000,g  7.7,4.8
# From MPC 89011
54P/de Vico-Swift-NEAT,e,6.0599,358.8187,1.7700,3.793915,0.1333745,0.42514269,131.5645,12/28.0/2019,2000,g  9.0,4.0
# From MPC 31070
55P/Tempel-Tuttle,e,162.3612,235.4044,172.5572,10.34570,0.0296186,0.90685200,236.8034,12/28.0/2019,2000,g  9.0,4.0
# From MPC101100
56P/Slaughter-Burnham,e,8.1553,345.9763,44.0538,5.073472,0.0862474,0.50652141,108.4898,12/28.0/2019,2000,g  8.5,6.0
# From MPC 98565
57P/du Toit-Neujmin-Delporte,e,2.8497,188.7831,115.1930,3.447733,0.1539585,0.50063274,258.4726,12/28.0/2019,2000,g 12.5,6.0
# From NK 778
58P/Jackson-Neujmin,e,13.1003,159.0702,200.4558,4.083690,0.1194332,0.66267962,342.1995,12/28.0/2019,2000,g  9.0,4.0
# From MPC111774
59P/Kearns-Kwee,e,9.3411,312.8294,127.6527,4.491005,0.1035592,0.47490347,48.4019,12/28.0/2019,2000,g  7.0,6.0
# From MPEC 2015-M77
60P/Tsuchinshan,e,3.6066,267.5820,216.6281,3.512408,0.1497258,0.53766514,57.1500,12/28.0/2019,2000,g  9.0,4.0
# From MPEC 2015-Q71
61P/Shajn-Schaldach,e,5.9991,162.9923,221.9256,3.684179,0.1393776,0.42382778,216.1754,12/28.0/2019,2000,g  6.0,10.0
# From MPC109147
62P/Tsuchinshan,e,9.7022,90.1052,29.8881,3.418807,0.1559165,0.61491458,118.4085,12/28.0/2019,2000,g  8.0,10.0
# From MPC 84320
63P/Wild,e,19.7452,358.0137,169.1677,5.603733,0.0742998,0.64930573,182.4072,12/28.0/2019,2000,g 10.5,6.0
# From MPC111774
64P/Swift-Gehrels,e,8.9500,299.9988,97.1210,4.456146,0.1047767,0.68749048,43.9131,12/28.0/2019,2000,g  9.5,12.0
# From MPC104795
65P/Gunn,e,9.1841,62.0229,213.7360,3.883139,0.1288041,0.24999525,103.2220,12/28.0/2019,2000,g  5.0,6.0
# From MPC109147
66P/du Toit,e,18.6665,21.8850,257.2652,6.060242,0.0660646,0.78698484,38.8324,12/28.0/2019,2000,g  9.0,4.0
# From MPC 89011
67P/Churyumov-Gerasimenko,e,3.9193,37.3699,21.4634,3.448395,0.1539142,0.65437957,256.4178,12/28.0/2019,2000,g 11.0,4.0
# From MPC 75716
68P/Klemola,e,11.1109,175.0822,153.0600,4.948462,0.0895362,0.63749235,4.3837,12/28.0/2019,2000,g 10.0,4.0
# From MPC114607
69P/Taylor,e,22.0330,104.8306,343.5412,3.890585,0.1284345,0.41313104,36.5562,12/28.0/2019,2000,g  9.5,12.0
# From MPC 92276
70P/Kojima,e,6.5982,119.2678,1.8701,3.674952,0.1399029,0.45326255,265.3735,12/28.0/2019,2000,g 11.0,6.0
# From MPC107051
71P/Clark,e,9.4427,59.4422,208.9964,3.138027,0.1773042,0.49426460,161.4396,12/28.0/2019,2000,g  9.8,6.0
# From MPC 89011
72P/Denning-Fujikawa,e,10.9254,26.6918,346.6665,4.311966,0.1100756,0.81784682,220.5746,12/28.0/2019,2000,g 17.5,10.0
# From MPC106348
73P/Schwassmann-Wachmann,e,11.2360,69.6546,199.4278,3.093121,0.1811794,0.68574563,184.0316,12/28.0/2019,2000,g 11.5,6.0
# From MPC106348
73P-T/Schwassmann-Wachmann,e,11.2382,69.6572,199.4092,3.094680,0.1810425,0.68594890,183.8934,12/28.0/2019,2000,g 11.5,6.0
# From MPC102956
74P/Smirnova-Chernykh,e,6.6442,77.0514,89.0967,4.185277,0.1151113,0.15257672,79.1292,12/28.0/2019,2000,g  5.0,6.0
# From MPC118097
76P/West-Kohoutek-Ikemura,e,30.4568,84.1250,0.0209,3.475114,0.1521425,0.53820398,9.5633,12/28.0/2019,2000,g  8.0,12.0
# From MPC100283
77P/Longmore,e,24.3300,14.8049,196.8677,3.619788,0.1431131,0.35267364,189.4314,12/28.0/2019,2000,g  7.0,8.0
# From MPEC 2016-U66
78P/Gehrels,e,6.2485,210.5420,192.6715,3.740551,0.1362388,0.46167888,36.6939,12/28.0/2019,2000,g  9.0,4.0
# From MPC 94675
79P/du Toit-Hartley,e,3.1480,280.5254,281.8272,2.942823,0.1952350,0.61911060,91.9027,12/28.0/2019,2000,g 16.0,4.0
# From MPEC 2014-P41
80P/Peters-Hartley,e,29.9473,259.8220,339.2478,4.024290,0.1220872,0.59924051,228.6000,12/28.0/2019,2000,g  9.0,4.0
# From MPC105241
81P/Wild,e,3.2372,136.1096,41.7243,3.449854,0.1538165,0.53736012,193.2930,12/28.0/2019,2000,g  7.0,6.0
# From MPC 75717
82P/Gehrels,e,1.1283,239.3150,226.9810,4.138034,0.1170882,0.12188712,64.2656,12/28.0/2019,2000,g  5.0,8.0
# From MPC105241
84P/Giclas,e,7.5523,108.1747,281.5498,3.547906,0.1474843,0.51550723,336.5812,12/28.0/2019,2000,g  9.5,8.0
# From MPC109147
86P/Wild,e,15.4762,72.3782,179.2916,3.604532,0.1440226,0.37266186,248.7853,12/28.0/2019,2000,g 11.0,6.0
# From MPC105241
87P/Bus,e,2.6023,181.8621,24.9211,3.438020,0.1546114,0.38922261,339.4017,12/28.0/2019,2000,g  7.2,10.0
# From MPEC 2019-JE2
88P/Howell,e,4.3838,56.6861,235.9133,3.105324,0.1801124,0.56423670,310.7150,12/28.0/2019,2000,g 11.0,6.0
# From MPC100283
89P/Russell,e,12.0721,41.4255,250.2404,3.753891,0.1355132,0.40865891,150.0932,12/28.0/2019,2000,g 11.5,6.0
# From MPC107051
90P/Gehrels,e,9.6386,13.2207,29.1432,6.057228,0.0661140,0.50946591,60.9702,12/28.0/2019,2000,g  8.5,6.0
# From MPC105241
91P/Russell,e,14.0916,247.8295,354.7594,3.890840,0.1284219,0.33060402,319.2591,12/28.0/2019,2000,g  7.5,6.0
# From MPEC 2014-J58
92P/Sanguin,e,19.4700,181.4000,163.7038,5.346308,0.0797302,0.66020623,140.4730,12/28.0/2019,2000,g 12.0,6.0
# From NK 2707
